# Made by eph2tle, compiled Sep 27 2024 10:52:36
# Run at Sat Sep 28 08:57:16 2024
#
#    The following TLEs (Two-Line Elements) were generated by fitting
# a numerically-integrated ephemeris,  based on the orbit given below,
# to the SDP4/SGP4 models.  Each TLE is good for the interval between
# its epoch and the epoch of the subsequent TLE (usually one day).
# The maximum deviation between the numerically integrated ephemerides
# and the TLE-based ephemeris, in kilometers,  is given for each TLE
# as the "worst residual".
#
#    This fitting is done using the 'eph2tle' code packaged with Find_Orb.
# The code has details on how the TLEs were computed :
#
#    https://github.com/Bill-Gray/find_orb/eph2tle.cpp
#
#    Be warned:  the error given is that between the numerically
# integrated ephems and the TLE model.  There will usually be at
# least some additional difference between the ephems and the actual
# motion of the satellite,  especially if the ephemerides are based
# on a short arc.  If the following orbital elements say something
# like "[based on] 10 observations 2015 Jan. 1-13",  and the TLEs
# are for 2015 May,  the extrapolation may be tenuous at best.  If
# your application requires a specific level of accuracy,  you may
# want to contact me;  I can give you some idea as to the fit of the
# underlying data (and possibly TLEs based on newer data).
#
#   You can usually find the underlying observational data,  and the
# fitted orbit,  residuals,  ephemerides,  and sometimes some comments
# about the object,  among the pages listed at
#
#    https://www.projectpluto.com/pluto/mpecs/pseudo.htm
#
#    WARNING:  for this object,  "normal" TLEs cannot be fitted.  (This
# usually means an object with an hyperbolic or nearly-parabolic orbit.)
# For this and similar cases,   an alternative model is used,  in which
# most of the traditional TLE data is replaced by six signed 8-digit hex
# numbers.  These six numbers are a state vector,  numerically integrated
# using a simplified force model.  This is necessary for objects at L2 or
# L1,  and sometimes for objects in high orbits where the SDP4/SGP4 model
# fails.  Some documentation is in 'get_el.cpp' in the source code at
# https://www.github.com/Bill-Gray/sat_code ; look for 'hex' in that file,
# with the actual integration done in 'sdp4.cpp'.  But be aware:  it's my
# own extension,  doesn't work with other code,  and is therefore used
# only when necessary.
#
#    Also,  if you use a TLE outside the "correct" time range (between
# its MJD and that of the next TLE),  all bets are off.  I've carefully
# computed and minimized the worst error over the "correct" time frame,
# but the ephemeris may (or may not) diverge wildly outside of it.
#
# Ephem range: 60523.000000 60849.000000 1.000000
# Created Sat Sep 28 08:56:57 2024
# Ephemeris start:  1 Aug 2024  0:00:00
# Ephemeris end:   23 Jun 2025  0:00:00
# Times are all TDT
# Positions/velocities are in equatorial J2000
# Orbital elements:  DRO-B = 2024-048D = NORAD 60058
#    Perigee 2024 Sep 29.4960 +/- 5.64e-5 TT = 11:54:11 (JD 2460582.9960)
# Epoch 2024 Sep 27.0 TT = JDT 2460580.5                           Find_Orb
# M 337.3763473 +/- 0.0007            (J2000 equator)
# n   9.0640798 +/- 8.5e-5            Peri.  150.5670 +/- 0.0008
# a491723.56 +/- 3.07                 Node     5.9833 +/- 0.00012
# e   0.346472 +/- 3.03e-6            Incl.   28.5668 +/- 0.000035
# P  39.7165d                H 30.06  G  0.15   U  6.4
# q 321355.11 +/- 0.614    Q 662092.02 +/- 5.61
# 20 of 22 observations 2024 Sept. 12-27; mean residual 0".843
#
# Elements after  1 Oct 2024 :
#
# Orbital elements:  DRO-B = 2024-048D = NORAD 60058
#    Perigee 2024 Nov 8.116290 +/- 8.03e-5 TT =  2:47:27.4 (JD 2460622.616290)
# Epoch 2024 Nov 15.0 TT; AMR 0.015559 +/- 0.000797 m^2/kg         Find_Orb
# M 105.841301372 +/- 0.0028          (J2000 equator)
# n  15.375617904 +/- 0.000359        Peri.  269.826862 +/- 0.0020
# a345712.5304 +/- 5.38               Node     2.582348 +/- 0.00012
# e   0.34352379 +/- 3.08e-6          Incl.   26.746715 +/- 0.00006
# P  23.4133d                H 30.99  G  0.15   U  7.4
# q 226952.0514 +/- 4.33    Q 464473.0094 +/- 6.54
# 21 of 22 observations 2024 Oct. 14-Nov. 15; mean residual 0".344
#
# Elements after 21 Dec 2024 :
#
# Orbital elements:  DRO-B = 2024-048D = NORAD 60058
#    Perigee 2024 Nov 20.576798 +/- 0.000108 TT;  Constraint: A=.015
# dx:    -0.0257 +/- 0.00617   dy:     0.0374 +/- 0.00108
# dz:     0.0636 +/- 0.00268 m/s   T0: 2024 Dec 21.196 +/- 0.0632
# Epoch 2024 Nov 28.0 TT = JDT 2460642.5                           Find_Orb
# M  99.768007917 +/- 0.0024          (J2000 equator)
# n  13.440023003 +/- 0.000139        Peri.   83.792860 +/- 0.0026
# a378155.2767 +/- 2.61               Node     5.294343 +/- 0.00010
# e   0.34213971 +/- 6.05e-6          Incl.   30.559433 +/- 0.00008
# P  26.7852d                H 30.86  G  0.15   U  6.8
# q 248773.3376 +/- 4    Q 507537.2157 +/- 1.28
# 27 of 28 observations 2024 Oct. 14-2025 Jan. 11; mean residual 0".322
#
# Elements after 19 Jan 2025 :
#
# Orbital elements:  DRO-B = 2024-048D = NORAD 60058
#    Perigee 2025 Jan 17.107827 +/- 0.0025399 TT =  2:35:16.2 (JD 2460692.607827)
# dx: -0.21974 +/- 0.30194   dy: 0.14474 +/- 0.063538
# dz: -0.011754 +/- 0.075986 m/s   T0: 2025 Jan 20.681 +/- 2.5565
# Epoch 2025 Jan 21.0 TT = JDT 2460696.5                           Find_Orb
# M  35.844981281 +/- 0.03720         (J2000 equator)
# n   9.209503731 +/- 0.0036624       Peri.  134.295651 +/- 0.04269
# a486533.4312 +/- 128.99             Node     4.304445 +/- 0.003719
# e   0.37997028 +/- 8.6602e-5        Incl.   30.482200 +/- 0.003600
# P  39.0893d                H 30.37  G  0.15   U  9.0
# q 301665.1860 +/- 44.03    Q 671401.6764 +/- 217.56
# 22 of 45 observations 2025 Jan. 7-Feb. 16; mean residual 1".657
#
# Elements after 18 Feb 2025 :
#
# Orbital elements:  DRO-B = 2024-048D = NORAD 60058
#    Perigee 2025 Mar 15.706759 +/- 0.003616 TT;  Constraint: A=0.01
# Epoch 2025 Mar 15.0 TT = JDT 2460749.5                           Find_Orb
# M 355.780187367 +/- 0.03281         (J2000 equator)
# n   5.970649733 +/- 0.016166        Peri.  189.597103 +/- 0.05078
# a649514.8876 +/- 1172.4             Node     3.318872 +/- 0.001791
# e   0.48551398 +/- 0.00088578       Incl.   28.635677 +/- 0.001091
# P  60.2938d                H 30.09  G  0.15   U 10.0
# q 334166.3291 +/- 27.901    Q 964863.4462 +/- 2316.9
# 10 of 55 observations 2025 Mar. 10-19; mean residual 1".154
#
# Elements after  1 Apr 2025 :
#
# Orbital elements:  2024-048D = NORAD 60058 = DRO-B
#    Perilune 2025 Apr 23.758495 +/- 0.0031905 TT = 18:12:13.9 (JD 2460789.258495)
# dx: -3.1287 +/- 0.18354   dy: -3.4043 +/- 0.15759
# dz: 0.6468 +/- 0.010383 m/s   T0: 2025 Apr 14.917 +/- 0.081018
# Epoch 2025 Apr 28.0 TT = JDT 2460793.5                           Find_Orb
# M 143.650640899 +/- 0.0876          (J2000 ecliptic)
# n  33.867843035 +/- 0.0048437       Peri.  348.277762 +/- 0.1388
# a 47139.02757 +/- 4.4944            Node    83.472355 +/- 0.1090
# e   0.56436550 +/- 0.00023877       Incl.  176.904122 +/- 0.002159
# P  10.6294d                H 30.44  G  0.15   U  9.2
# q 20535.38632 +/- 9.337    Q 73742.66882 +/- 18.214
# 23 of 69 observations 2025 Apr. 7-May 2; mean residual 0".547/1.61 sigmas
#
# Elements after  2 May 2025 :
#
# Orbital elements:  2024-048D = NORAD 60058 = DRO-B
#    Perigee 2025 Apr 29.614361 +/- 0.00014473 TT;  Constraint: A=0.02
# dx: 2.1186 +/- 0.089244   dy: -2.9361 +/- 0.03122
# dz: 0.52124 +/- 0.0058957 m/s   T0: 2025 Apr 27.074 +/- 0.018832
# Epoch 2025 May  7.0 TT = JDT 2460802.5                           Find_Orb
# M 107.339983036 +/- 0.00686         (J2000 equator)
# n  14.533607221 +/- 0.00064944      Peri.   63.064446 +/- 0.004481
# a358939.4779 +/- 10.693             Node   356.063659 +/- 0.0000766
# e   0.27897159 +/- 8.2299e-6        Incl.   29.129508 +/- 5.9889e-5
# P  24.7697d                H 30.04  G  0.15   U  7.8
# q 258805.5592 +/- 5.4956    Q 459073.3967 +/- 16.22
# 45 of 93 observations 2025 Apr. 7-May 7; mean residual 1.315 sigmas/1.31 sigmas
#
# 1 NoradU COSPAR   Epoch.epoch     dn/dt/2  d2n/dt2/6 BSTAR    T El# C
# 2 NoradU Inclina RAAscNode Eccent  ArgPeri MeanAno  MeanMotion Rev# C

# Worst residual: 41.34 km
# MJD 60523.000000 (2024 Aug  1  0:00)
DRO-B
1 60058U 24048D   24213.99919926 +001CKDWD +004W8VFE +002LJ0MHH 24634
2 60058                          -00077SSD -0000742L +0000BRO6     06

# Worst residual: 69.99 km
# MJD 60524.000000 (2024 Aug  2  0:00)
DRO-B
1 60058U 24048D   24214.99919926 -000G3MCG +004OM2MP +002L6UZSH 24638
2 60058                          -0007NOUV -0001L0GN -0000F7UQ     09

# Worst residual: 36.78 km
# MJD 60525.000000 (2024 Aug  3  0:00)
DRO-B
1 60058U 24048D   24215.99919926 -0029NW4A +00454OWH +002E5JMKH 24637
2 60058                          -0007DKKU -0002VU6W -0001717U     05

# Worst residual: 23.82 km
# MJD 60526.000000 (2024 Aug  4  0:00)
DRO-B
1 60058U 24048D   24216.99919926 -003XAJ3C +003BR8V7 +0020XFFJH 24639
2 60058                          -0006BPFG -0003UL21 -0001U0LF     07

# Worst residual: 13.40 km
# MJD 60527.000000 (2024 Aug  5  0:00)
DRO-B
1 60058U 24048D   24217.99919926 -0059Y6UE +002BSBRT +001J3XRZH 24630
2 60058                          -0004WYMB -0004EQWO -0002930Y     06

# Worst residual: 10.60 km
# MJD 60528.000000 (2024 Aug  6  0:00)
DRO-B
1 60058U 24048D   24218.99919926 -006A8CDK +0018M44W +000YMNYRH 24636
2 60058                          -0003HWA2 -0004LROY -0002GFNX     05

# Worst residual: 8.02 km
# MJD 60529.000000 (2024 Aug  7  0:00)
DRO-B
1 60058U 24048D   24219.99919926 -006YQ0UO +000500LS +000D4OZEH 24631
2 60058                          -00026ZHG -0004IZ25 -0002HWDL     05

# Worst residual: 13.21 km
# MJD 60530.000000 (2024 Aug  8  0:00)
DRO-B
1 60058U 24048D   24220.99919926 -007CHXZ1 -000X1SU6 -00086N6SH 24635
2 60058                          -00010FS3 -000493FO -0002F4C9     09

